STARLINK-35948          
1 66633U 25271S   25344.83334491 -.02064228  00000+0 -30014-1 0  9998
2 66633  53.1602 196.3465 0001126 108.3352 139.5547 15.58260281  3936
STARLINK-35967          
1 66634U 25271T   25344.83334491 -.02064219  00000+0 -30013-1 0  9998
2 66634  53.1600 196.3423 0001159 106.5631 143.2434 15.58260727  3869
STARLINK-35955          
1 66635U 25271U   25344.83334491 -.02070403  00000+0 -30111-1 0  9990
2 66635  53.1598 196.3387 0001091 105.4136 146.3095 15.58263632  3931
STARLINK-35968          
1 66636U 25271V   25344.83334491 -.02074491  00000+0 -30172-1 0  9999
2 66636  53.1599 196.3345 0001189 107.9154 145.7218 15.58267606  3937
STARLINK-35953          
1 66637U 25271W   25344.83334491 -.02070357  00000+0 -30112-1 0  9991
2 66637  53.1600 196.3305 0001010 105.0888 150.4695 15.58262689  3931
STARLINK-35972          
1 66638U 25271X   25344.83334491 -.02073029  00000+0 -30152-1 0  9995
2 66638  53.1600 196.3269 0001090 107.3946 150.0785 15.58265473  3939
STARLINK-35908          
1 66639U 25271Y   25344.83334491 -.02071201  00000+0 -30124-1 0  9995
2 66639  53.1601 196.3225 0001054 107.4941 151.8966 15.58264038  3935
STARLINK-35921          
1 66640U 25271Z   25344.83334491 -.02069007  00000+0 -30085-1 0  9994
2 66640  53.1601 196.3187 0001138 112.8596 148.4431 15.58265751  3935
STARLINK-35923          
1 66641U 25271AA  25344.83334491 -.02065376  00000+0 -30032-1 0  9992
2 66641  53.1600 196.3016 0001064 112.3483 156.6261 15.58261699  3933
STARLINK-35926          
1 66642U 25271AB  25344.83334491 -.02069141  00000+0 -30093-1 0  9994
2 66642  53.1598 196.3066 0000923  89.4285 177.6296 15.58263359  3691
STARLINK-35918          
1 66643U 25271AC  25344.83334491 -.02063971  00000+0 -30008-1 0  9996
2 66643  53.1597 196.3149 0001108 112.5312 150.6903 15.58261959  3935
STARLINK-35938          
1 66644U 25271AD  25344.83334491 -.02074247  00000+0 -30169-1 0  9993
2 66644  53.1597 196.3109 0001139 112.3507 152.7877 15.58267243  3935
