CCSDS_OMM_VERS = 2.0
CREATION_DATE  = 
ORIGINATOR     = 

OBJECT_NAME    = STARLINK-35948
OBJECT_ID      = 2025-271S
CENTER_NAME    = EARTH
REF_FRAME      = TEME
TIME_SYSTEM    = UTC
MEAN_ELEMENT_THEORY = SGP/SGP4

EPOCH          = 2025-12-10T20:00:01.000224
MEAN_MOTION    = 15.58260281
ECCENTRICITY   = .0001126
INCLINATION    = 53.1602
RA_OF_ASC_NODE = 196.3465
ARG_OF_PERICENTER = 108.3352
MEAN_ANOMALY   = 139.5547

EPHEMERIS_TYPE = 0
CLASSIFICATION_TYPE = U
NORAD_CAT_ID   = 66633
ELEMENT_SET_NO = 999
REV_AT_EPOCH   = 393
BSTAR          = -.30014E-1
MEAN_MOTION_DOT = -.2064228E-1
MEAN_MOTION_DDOT = 0

CCSDS_OMM_VERS = 2.0
CREATION_DATE  = 
ORIGINATOR     = 

OBJECT_NAME    = STARLINK-35967
OBJECT_ID      = 2025-271T
CENTER_NAME    = EARTH
REF_FRAME      = TEME
TIME_SYSTEM    = UTC
MEAN_ELEMENT_THEORY = SGP/SGP4

EPOCH          = 2025-12-10T20:00:01.000224
MEAN_MOTION    = 15.58260727
ECCENTRICITY   = .0001159
INCLINATION    = 53.1600
RA_OF_ASC_NODE = 196.3423
ARG_OF_PERICENTER = 106.5631
MEAN_ANOMALY   = 143.2434

EPHEMERIS_TYPE = 0
CLASSIFICATION_TYPE = U
NORAD_CAT_ID   = 66634
ELEMENT_SET_NO = 999
REV_AT_EPOCH   = 386
BSTAR          = -.30013E-1
MEAN_MOTION_DOT = -.2064219E-1
MEAN_MOTION_DDOT = 0

CCSDS_OMM_VERS = 2.0
CREATION_DATE  = 
ORIGINATOR     = 

OBJECT_NAME    = STARLINK-35955
OBJECT_ID      = 2025-271U
CENTER_NAME    = EARTH
REF_FRAME      = TEME
TIME_SYSTEM    = UTC
MEAN_ELEMENT_THEORY = SGP/SGP4

EPOCH          = 2025-12-10T20:00:01.000224
MEAN_MOTION    = 15.58263632
ECCENTRICITY   = .0001091
INCLINATION    = 53.1598
RA_OF_ASC_NODE = 196.3387
ARG_OF_PERICENTER = 105.4136
MEAN_ANOMALY   = 146.3095

EPHEMERIS_TYPE = 0
CLASSIFICATION_TYPE = U
NORAD_CAT_ID   = 66635
ELEMENT_SET_NO = 999
REV_AT_EPOCH   = 393
BSTAR          = -.30111E-1
MEAN_MOTION_DOT = -.2070403E-1
MEAN_MOTION_DDOT = 0

CCSDS_OMM_VERS = 2.0
CREATION_DATE  = 
ORIGINATOR     = 

OBJECT_NAME    = STARLINK-35968
OBJECT_ID      = 2025-271V
CENTER_NAME    = EARTH
REF_FRAME      = TEME
TIME_SYSTEM    = UTC
MEAN_ELEMENT_THEORY = SGP/SGP4

EPOCH          = 2025-12-10T20:00:01.000224
MEAN_MOTION    = 15.58267606
ECCENTRICITY   = .0001189
INCLINATION    = 53.1599
RA_OF_ASC_NODE = 196.3345
ARG_OF_PERICENTER = 107.9154
MEAN_ANOMALY   = 145.7218

EPHEMERIS_TYPE = 0
CLASSIFICATION_TYPE = U
NORAD_CAT_ID   = 66636
ELEMENT_SET_NO = 999
REV_AT_EPOCH   = 393
BSTAR          = -.30172E-1
MEAN_MOTION_DOT = -.2074491E-1
MEAN_MOTION_DDOT = 0

CCSDS_OMM_VERS = 2.0
CREATION_DATE  = 
ORIGINATOR     = 

OBJECT_NAME    = STARLINK-35953
OBJECT_ID      = 2025-271W
CENTER_NAME    = EARTH
REF_FRAME      = TEME
TIME_SYSTEM    = UTC
MEAN_ELEMENT_THEORY = SGP/SGP4

EPOCH          = 2025-12-10T20:00:01.000224
MEAN_MOTION    = 15.58262689
ECCENTRICITY   = .000101
INCLINATION    = 53.1600
RA_OF_ASC_NODE = 196.3305
ARG_OF_PERICENTER = 105.0888
MEAN_ANOMALY   = 150.4695

EPHEMERIS_TYPE = 0
CLASSIFICATION_TYPE = U
NORAD_CAT_ID   = 66637
ELEMENT_SET_NO = 999
REV_AT_EPOCH   = 393
BSTAR          = -.30112E-1
MEAN_MOTION_DOT = -.2070357E-1
MEAN_MOTION_DDOT = 0

CCSDS_OMM_VERS = 2.0
CREATION_DATE  = 
ORIGINATOR     = 

OBJECT_NAME    = STARLINK-35972
OBJECT_ID      = 2025-271X
CENTER_NAME    = EARTH
REF_FRAME      = TEME
TIME_SYSTEM    = UTC
MEAN_ELEMENT_THEORY = SGP/SGP4

EPOCH          = 2025-12-10T20:00:01.000224
MEAN_MOTION    = 15.58265473
ECCENTRICITY   = .000109
INCLINATION    = 53.1600
RA_OF_ASC_NODE = 196.3269
ARG_OF_PERICENTER = 107.3946
MEAN_ANOMALY   = 150.0785

EPHEMERIS_TYPE = 0
CLASSIFICATION_TYPE = U
NORAD_CAT_ID   = 66638
ELEMENT_SET_NO = 999
REV_AT_EPOCH   = 393
BSTAR          = -.30152E-1
MEAN_MOTION_DOT = -.2073029E-1
MEAN_MOTION_DDOT = 0

CCSDS_OMM_VERS = 2.0
CREATION_DATE  = 
ORIGINATOR     = 

OBJECT_NAME    = STARLINK-35908
OBJECT_ID      = 2025-271Y
CENTER_NAME    = EARTH
REF_FRAME      = TEME
TIME_SYSTEM    = UTC
MEAN_ELEMENT_THEORY = SGP/SGP4

EPOCH          = 2025-12-10T20:00:01.000224
MEAN_MOTION    = 15.58264038
ECCENTRICITY   = .0001054
INCLINATION    = 53.1601
RA_OF_ASC_NODE = 196.3225
ARG_OF_PERICENTER = 107.4941
MEAN_ANOMALY   = 151.8966

EPHEMERIS_TYPE = 0
CLASSIFICATION_TYPE = U
NORAD_CAT_ID   = 66639
ELEMENT_SET_NO = 999
REV_AT_EPOCH   = 393
BSTAR          = -.30124E-1
MEAN_MOTION_DOT = -.2071201E-1
MEAN_MOTION_DDOT = 0

CCSDS_OMM_VERS = 2.0
CREATION_DATE  = 
ORIGINATOR     = 

OBJECT_NAME    = STARLINK-35921
OBJECT_ID      = 2025-271Z
CENTER_NAME    = EARTH
REF_FRAME      = TEME
TIME_SYSTEM    = UTC
MEAN_ELEMENT_THEORY = SGP/SGP4

EPOCH          = 2025-12-10T20:00:01.000224
MEAN_MOTION    = 15.58265751
ECCENTRICITY   = .0001138
INCLINATION    = 53.1601
RA_OF_ASC_NODE = 196.3187
ARG_OF_PERICENTER = 112.8596
MEAN_ANOMALY   = 148.4431

EPHEMERIS_TYPE = 0
CLASSIFICATION_TYPE = U
NORAD_CAT_ID   = 66640
ELEMENT_SET_NO = 999
REV_AT_EPOCH   = 393
BSTAR          = -.30085E-1
MEAN_MOTION_DOT = -.2069007E-1
MEAN_MOTION_DDOT = 0

CCSDS_OMM_VERS = 2.0
CREATION_DATE  = 
ORIGINATOR     = 

OBJECT_NAME    = STARLINK-35923
OBJECT_ID      = 2025-271AA
CENTER_NAME    = EARTH
REF_FRAME      = TEME
TIME_SYSTEM    = UTC
MEAN_ELEMENT_THEORY = SGP/SGP4

EPOCH          = 2025-12-10T20:00:01.000224
MEAN_MOTION    = 15.58261699
ECCENTRICITY   = .0001064
INCLINATION    = 53.1600
RA_OF_ASC_NODE = 196.3016
ARG_OF_PERICENTER = 112.3483
MEAN_ANOMALY   = 156.6261

EPHEMERIS_TYPE = 0
CLASSIFICATION_TYPE = U
NORAD_CAT_ID   = 66641
ELEMENT_SET_NO = 999
REV_AT_EPOCH   = 393
BSTAR          = -.30032E-1
MEAN_MOTION_DOT = -.2065376E-1
MEAN_MOTION_DDOT = 0

CCSDS_OMM_VERS = 2.0
CREATION_DATE  = 
ORIGINATOR     = 

OBJECT_NAME    = STARLINK-35926
OBJECT_ID      = 2025-271AB
CENTER_NAME    = EARTH
REF_FRAME      = TEME
TIME_SYSTEM    = UTC
MEAN_ELEMENT_THEORY = SGP/SGP4

EPOCH          = 2025-12-10T20:00:01.000224
MEAN_MOTION    = 15.58263359
ECCENTRICITY   = .0000923
INCLINATION    = 53.1598
RA_OF_ASC_NODE = 196.3066
ARG_OF_PERICENTER = 89.4285
MEAN_ANOMALY   = 177.6296

EPHEMERIS_TYPE = 0
CLASSIFICATION_TYPE = U
NORAD_CAT_ID   = 66642
ELEMENT_SET_NO = 999
REV_AT_EPOCH   = 369
BSTAR          = -.30093E-1
MEAN_MOTION_DOT = -.2069141E-1
MEAN_MOTION_DDOT = 0

CCSDS_OMM_VERS = 2.0
CREATION_DATE  = 
ORIGINATOR     = 

OBJECT_NAME    = STARLINK-35918
OBJECT_ID      = 2025-271AC
CENTER_NAME    = EARTH
REF_FRAME      = TEME
TIME_SYSTEM    = UTC
MEAN_ELEMENT_THEORY = SGP/SGP4

EPOCH          = 2025-12-10T20:00:01.000224
MEAN_MOTION    = 15.58261959
ECCENTRICITY   = .0001108
INCLINATION    = 53.1597
RA_OF_ASC_NODE = 196.3149
ARG_OF_PERICENTER = 112.5312
MEAN_ANOMALY   = 150.6903

EPHEMERIS_TYPE = 0
CLASSIFICATION_TYPE = U
NORAD_CAT_ID   = 66643
ELEMENT_SET_NO = 999
REV_AT_EPOCH   = 393
BSTAR          = -.30008E-1
MEAN_MOTION_DOT = -.2063971E-1
MEAN_MOTION_DDOT = 0

CCSDS_OMM_VERS = 2.0
CREATION_DATE  = 
ORIGINATOR     = 

OBJECT_NAME    = STARLINK-35938
OBJECT_ID      = 2025-271AD
CENTER_NAME    = EARTH
REF_FRAME      = TEME
TIME_SYSTEM    = UTC
MEAN_ELEMENT_THEORY = SGP/SGP4

EPOCH          = 2025-12-10T20:00:01.000224
MEAN_MOTION    = 15.58267243
ECCENTRICITY   = .0001139
INCLINATION    = 53.1597
RA_OF_ASC_NODE = 196.3109
ARG_OF_PERICENTER = 112.3507
MEAN_ANOMALY   = 152.7877

EPHEMERIS_TYPE = 0
CLASSIFICATION_TYPE = U
NORAD_CAT_ID   = 66644
ELEMENT_SET_NO = 999
REV_AT_EPOCH   = 393
BSTAR          = -.30169E-1
MEAN_MOTION_DOT = -.2074247E-1
MEAN_MOTION_DDOT = 0

